    PK05R25V  2006 11  4.5807  3.600540  0.166660  191.2061  246.8783    9.8876  20100104   9.5  4.0  P/2005 RV25 (LONEOS-Christensen)                         MPC 55978
    PK05S020  2006 06 30.7417  6.398015  0.198633  229.9520  161.2031    3.1410  20100104   7.5  4.0  P/2005 S2 (Skiff)                                        MPC 54987
    CK05S040  2007 07 19.9712  5.854285  0.999437   31.5871  318.2889  107.9589  20100104   5.0  4.0  C/2005 S4 (McNaught)                                     MPC 60464
    PK05SL6B  2007 02 10.7563  3.811449  0.463597   83.3928    1.6744   24.1182  20100104  12.0  2.0  P/2005 SB216 (LONEOS)                                    MPC 61994
    CK06E010  2007 01  7.9768  6.044566  1.003313  232.8998   95.0508   83.1815  20100104   6.0  4.0  C/2006 E1 (McNaught)                                     MPC 65935
    PK06F010  2008 02 18.7827  4.120268  0.118673  186.7775  124.7595   21.2750  20100104   8.0  4.0  P/2006 F1 (Kowalski)                                     MPC 60465
    CK06K040  2007 11 29.6642  3.189702  0.998691  233.6735  116.6117  111.3342  20100104   6.0  4.0  C/2006 K4 (NEAT)                                         MPC 62270
    CK06O02F  2008 09 15.7610  2.431263  1.001474   95.6209  318.5064   30.1680  20100104   5.5  4.0  C/2006 OF2 (Broughton)                                   MPC 62270
    CK06Q010  2008 07  3.7526  2.763578  0.999146  344.3644  199.5564   59.0539  20100104   5.0  4.0  C/2006 Q1 (McNaught)                                     MPC 61994
    CK06S030  2012 04 16.6943  5.135503  1.000994  140.0641   38.3385  166.0291  20100104   2.0  4.0  C/2006 S3 (LONEOS)                                       MPC 61702
    CK06U060  2008 06  5.5682  2.497669  0.999087  276.5942  180.1828   84.8981  20100104   8.0  4.0  C/2006 U6 (Spacewatch)                                   MPC 66204
    CK06W030  2009 07  6.6278  3.126094  1.000373  133.5167  113.5828  127.0548  20100104   5.0  4.0  C/2006 W3 (Christensen)                                  MPC 61436
    CK07B020  2008 08 21.1139  2.977691  0.996346  206.1423   14.8208   27.4979  20100104   6.0  4.0  C/2007 B2 (Skiff)                                        MPC 66700
    CK07D010  2007 06 15.5271  8.788560  0.994758  339.9941  171.0936   41.5474  20100104   3.5  4.0  C/2007 D1 (LINEAR)                                       MPC 61436
    CK07G010  2008 11 16.3509  2.647468  1.001664  224.0007   79.0023   88.3268  20100104   5.5  4.0  C/2007 G1 (LINEAR)                                       MPC 66464
    PK07H010  2007 08 18.1019  2.282143  0.378390  202.7364  144.3643   11.8749  20100104  10.0  4.0  P/2007 H1 (McNaught)                                     MPC 62270
    CK07M010  2008 08 12.7554  7.476212  0.995920   52.7011  326.8070  139.7209  20100104   6.0  4.0  C/2007 M1 (McNaught)                                     MPC 63376
    CK07M020  2008 12  8.5286  3.541109  0.998512  220.6680  357.2914   80.9534  20100104   8.0  4.0  C/2007 M2 (Catalina)                                     MPC 68392
    CK07N030  2009 01 10.6469  1.211828  0.999998  136.8603  338.5489  178.3738  20100104   6.5  4.0  C/2007 N3 (Lulin)                                        MPC 65054
    CK07Q030  2009 10  7.2643  2.251633  1.000208    2.0880  149.4132   65.6502  20100104   4.5  4.0  C/2007 Q3 (Siding Spring)                                MPC 61437
    PK07R010  2007 08 25.0157  4.354467  0.278517  175.3125  181.6407    7.8742  20100104   8.0  4.0  P/2007 R1 (Larson)                                       MPC 65645
    CK07S020  2008 09 13.6677  5.556688  0.556354  210.3846  296.2218   16.8563  20100104   6.5  4.0  C/2007 S2 (Lemmon)                                       MPC 64767
    CK07T050  2008 05 23.8150  4.048095  0.912302   34.3636  109.8298   45.6152  20100104   8.0  4.0  C/2007 T5 (Gibbs)                                        MPC 65935
    CK07U010  2008 08  7.1863  3.331797  1.001143    1.1232   50.1810  157.8021  20100104   9.0  4.0  C/2007 U1 (LINEAR)                                       MPC 66921
    CK07V53O  2010 04 26.4259  4.842675  0.999774   75.0226   59.7405   86.9914  20100104   7.0  4.0  C/2007 VO53 (Spacewatch)                                 MPC 63821
    CK08A010  2008 09 29.0927  1.073510  1.000346  348.4764  277.8961   82.5438  20100104   6.5  4.0  C/2008 A1 (McNaught)                                     MPC 65935
    PK08C94L  2006 06 23.3353  5.425919  0.119666   81.4037   33.4527    8.3530  20100104   8.0  4.0  P/2008 CL94 (Lemmon)                                     MPC 65645
    CK08E010  2008 08 11.7607  4.828423  0.548696  269.9825  189.0071   35.0439  20100104   7.0  4.0  C/2008 E1 (Catalina)                                     MPC 64113
    CK08E030  2008 08  2.8099  5.532200  0.998698  218.1581  105.6825  105.0777  20100104   6.0  4.0  C/2008 E3 (Garradd)                                      MPC 68392
    CK08F75K  2010 09 29.1009  4.511274  1.002965   80.4009  218.2614   61.1718  20100104   5.0  4.0  C/2008 FK75 (Lemmon-Siding Spring)                       MPC 64767
    CK08G010  2009 01 12.2417  3.989438  0.988586   63.7571  215.9177   72.8479  20100104   9.5  4.0  C/2008 G1 (Gibbs)                                        MPC 63136
    PK08J020  2008 03 20.3501  2.399428  0.310004  131.4777   98.1538   10.2519  20100104   9.0  4.0  P/2008 J2 (Beshore)                                      MPC 63376
    PK08J030  2009 03 10.8271  2.287353  0.412467    4.4477    9.8525   25.3991  20100104  12.0  4.0  P/2008 J3 (McNaught)                                     MPC 67971
    CK08N010  2009 09 25.9041  2.783608  0.997322  100.8185  357.4716  115.5209  20100104   9.0  4.0  C/2008 N1 (Holmes)                                       MPC 65935
    PK08O020  2009 04 21.8137  3.804004  0.152789   27.5013  325.8593    9.5184  20100104   9.0  4.0  P/2008 O2 (McNaught)                                     MPC 66921
    CK08P010  2009 07 22.9634  3.896266  1.001321   11.8694  357.6789   64.3137  20100104   7.0  4.0  C/2008 P1 (Garradd)                                      MPC 64114
    CK08Q010  2008 12 30.2172  2.959302  0.995385  104.4953    9.3043  118.6339  20100104  10.0  4.0  C/2008 Q1 (Maticic)                                      MPC 65935
    CK08Q030  2009 06 23.1055  1.798191  0.999820  340.8627  219.7372  140.7079  20100104  10.0  4.0  C/2008 Q3 (Garradd)                                      MPC 66204
    CK08S030  2011 06  5.0723  8.020098  1.000839   39.8102   54.9322  162.7015  20100104   4.0  4.0  C/2008 S3 (Boattini)                                     MPC 66921
    PK08T010  2008 02 26.8723  3.044674  0.281092   35.9885  291.7676    2.0829  20100104  11.0  4.0  P/2008 T1 (Boattini)                                     MPC 67413
    CK08T020  2009 06 13.2363  1.202372  1.000102  215.8756  309.6784   56.3035  20100104   6.0  4.0  C/2008 T2 (Cardinal)                                     MPC 66921
    PK08W96Z  2009 01 23.9637  1.646320  0.509932  337.6473   59.1013    6.9574  20100104  13.5  4.0  P/2008 WZ96 (LINEAR)                                     MPC 66204
    PK08Y030  2009 01 11.5904  4.433900  0.447374  238.2465  262.9165   38.8122  20100104   8.5  4.0  P/2008 Y3 (McNaught)                                     MPC 65936
    CK09E010  2009 04  7.9216  0.599487  0.985045   48.9443  105.9645  127.4319  20100104  11.5  4.0  C/2009 E1 (Itagaki)                                      MPC 66465
    CK09F020  2009 11 14.2727  5.875201  0.983243  336.3592  214.0564   59.3585  20100104   6.0  4.0  C/2009 F2 (McNaught)                                     MPC 66204
    CK09F040  2011 12 31.5588  5.455582  1.002893  260.3557   53.5660   79.3228  20100104   3.0  4.0  C/2009 F4 (McNaught)                                     MPC 68392
    CK09F050  2008 11  4.7970  2.245115  0.971709  297.3562  219.0683   84.9973  20100104  10.0  4.0  C/2009 F5 (McNaught)                                     MPC 66204
    CK09F060  2009 05  7.4311  1.274083  0.997512  129.7685  278.6763   85.7605  20100104   6.0  4.0  C/2009 F6 (Yi-SWAN)                                      MPC 67147
    CK09G010  2009 04 16.5059  1.128933  0.997745  175.4547  120.6388  108.3098  20100104   9.0  4.0  C/2009 G1 (STEREO)                                       MPC 66466
    CK09K020  2010 02  7.5088  3.246168  0.997818  147.6986  123.8052   66.8218  20100104  10.0  4.0  C/2009 K2 (Catalina)                                     MPC 67683
    CK09K030  2011 01  9.266   3.90156   1.00000   251.413     0.032   146.680              8.5  4.0  C/2009 K3 (Beshore)                                      MPC 66205
    CK09K040  2009 06 19.3669  1.549026  0.963334  127.4612   30.1201   34.8264  20100104  13.0  4.0  C/2009 K4 (Gibbs)                                        MPC 66703
    CK09K050  2010 04 30.0193  1.422371  1.000822   66.1725  257.8562  103.8784  20100104   7.5  4.0  C/2009 K5 (McNaught)                                     MPC 67973
    CK09O020  2010 03 24.4061  0.695375  0.997468  133.4060  310.2309  107.9574  20100104  11.0  4.0  C/2009 O2 (Catalina)                                     MPC 68392
    PK09O030  2009 05 18.5747  2.449937  0.686636  154.5450  183.7644   16.2178  20100104  12.5  4.0  P/2009 O3 (Hill)                                         MPC 67147
    CK09O040  2010 01  1.2816  2.563791  1.000903  223.7321  172.9388   95.8292  20100104  10.0  4.0  C/2009 O4 (Hill)                                         MPC 67147
    CK09P010  2011 12 24.1647  1.550134  0.999890   90.7970  325.9677  106.2447  20100104   4.0  4.0  C/2009 P1 (Garradd)                                      MPC 67973
    CK09P020  2010 02 10.6248  6.543868  1.001636   76.0493   60.3723  163.4536  20100104   6.0  4.0  C/2009 P2 (Boattini)                                     MPC 67147
    PK09Q010  2009 07  3.8083  2.788798  0.496114  157.8435  174.0871   14.4382  20100104  11.5  4.0  P/2009 Q1 (Hill)                                         MPC 67147
